0 IRIDIUM 33 DEB
1 33864U 97051AH  13281.72599581  .00004051  00000-0  12988-2 0  3362
2 33864 086.2808 106.4861 0012221 250.3173 237.4532 14.39267527243879
0 IRIDIUM 33 DEB
1 33864U 97051AH  13282.76953042  .00005331  00000-0  17104-2 0  3371
2 33864 086.2809 106.0324 0012240 246.7582 244.5443 14.39282757244024
0 IRIDIUM 33 DEB
1 33864U 97051AH  13284.01997543  .00005960  00000-0  19124-2 0  3388
2 33864 086.2808 105.4884 0012311 242.2670 244.0319 14.39293548244202
0 IRIDIUM 33 DEB
1 33864U 97051AH  13286.50841502  .00004764  00000-0  15269-2 0  3407
2 33864 086.2802 104.4061 0012507 232.9908 178.9739 14.39315158244561
0 IRIDIUM 33 DEB
1 33864U 97051AH  13287.83206259  .00007220  00000-0  23159-2 0  3416
2 33864 086.2799 103.8301 0012610 228.2542 197.9221 14.39328166244754
0 IRIDIUM 33 DEB
1 33864U 97051AH  13289.02514138  .00007626  00000-0  24454-2 0  3427
2 33864 086.2797 103.3111 0012723 223.7899 260.5446 14.39345284244921
0 IRIDIUM 33 DEB
1 33864U 97051AH  13290.46669057  .00007513  00000-0  24083-2 0  3432
2 33864 086.2796 102.6840 0012852 218.7762 170.4584 14.39360975245137
0 IRIDIUM 33 DEB
1 33864U 97051AH  13291.51534762  .00006437  00000-0  20623-2 0  3444
2 33864 086.2800 102.2277 0012968 215.1230 204.5174 14.39372427245287
0 IRIDIUM 33 DEB
1 33864U 97051AH  13292.64074700  .00006244  00000-0  19996-2 0  3458
2 33864 086.2803 101.7381 0013075 211.1948 276.3069 14.39385043245448
0 IRIDIUM 33 DEB
1 33864U 97051AH  13294.03451892  .00007059  00000-0  22607-2 0  3463
2 33864 086.2808 101.1318 0013208 206.3497 298.8450 14.39399889245648
0 IRIDIUM 33 DEB
1 33864U 97051AH  13295.47655688  .00008127  00000-0  26022-2 0  3474
2 33864 086.2812 100.5045 0013357 201.6466 211.2699 14.39417206245853
